NORAD_CAT_ID,OBJECT_NAME,OBJECT_TYPE,EPOCH,MEAN_MOTION,ECCENTRICITY,INCLINATION,RA_OF_ASC_NODE,ARG_OF_PERICENTER,MEAN_ANOMALY,BSTAR,MEAN_MOTION_DOT,MEAN_MOTION_DDOT,TLE_LINE0,TLE_LINE1,TLE_LINE2,SEMIMAJOR_AXIS,PERIOD,APOGEE,PERIGEE,DECAYED
55675.0,STARLINK-5232,PAYLOAD,2023-10-19 04:23:09,14.98338077,0.0002705,70.0015,204.2639,272.2729,87.812,7.5678e-05,8.1e-06,0.0,0 STARLINK-5232,1 55675U 23021AZ  23292.18274695  .00000810  00000-0  75678-4 0  9992,2 55675  70.0015 204.2639 0002705 272.2729  87.8120 14.98338077 38595,6950.168,96.106,573.913,570.153,0.0
55675.0,STARLINK-5232,PAYLOAD,2023-10-19 17:12:13,14.98334688,0.0002786,70.0016,202.9175,271.9424,88.1416,7.9401e-05,8.55e-06,0.0,0 STARLINK-5232,1 55675U 23021AZ  23292.71682637  .00000855  00000-0  79401-4 0  9997,2 55675  70.0016 202.9175 0002786 271.9424  88.1416 14.98334688 38375,6950.178,96.107,573.98,570.107,0.0
55675.0,STARLINK-5232,PAYLOAD,2023-10-20 04:24:57,14.98500053,0.0002941,70.0018,201.7385,321.9987,38.0964,0.0018281,0.00021884,0.0,0 STARLINK-5232,1 55675U 23021AZ  23293.18399372  .00021884  00000-0  18281-2 0  9992,2 55675  70.0018 201.7385 0002941 321.9987  38.0964 14.98500053 38441,6949.667,96.096,573.576,569.488,0.0
55675.0,STARLINK-5232,PAYLOAD,2023-10-20 20:25:44,14.98788352,0.0002393,70.0013,200.0547,252.8423,107.2474,0.0043855,0.00053261,0.0,0 STARLINK-5232,1 55675U 23021AZ  23293.85121463  .00053261  00000-0  43855-2 0  9999,2 55675  70.0013 200.0547 0002393 252.8423 107.2474 14.98788352 38542,6948.776,96.078,572.304,568.978,0.0
55675.0,STARLINK-5232,PAYLOAD,2023-10-20 22:01:51,14.98794543,0.0002345,70.0013,199.8863,251.7383,108.3521,0.0043791,0.00053191,0.0,0 STARLINK-5232,1 55675U 23021AZ  23293.91795229  .00053191  00000-0  43791-2 0  9994,2 55675  70.0013 199.8863 0002345 251.7383 108.3521 14.98794543 38856,6948.757,96.077,572.251,568.992,0.0
55675.0,STARLINK-5232,PAYLOAD,2023-10-21 02:50:09,14.98866254,0.0002989,70.0018,199.3817,266.2885,93.7932,0.0031099,0.00037735,0.0,0 STARLINK-5232,1 55675U 23021AZ  23294.11816714  .00037735  00000-0  31099-2 0  9994,2 55675  70.0018 199.3817 0002989 266.2885  93.7932 14.98866254 38589,6948.535,96.073,572.477,568.323,0.0
55675.0,STARLINK-5232,PAYLOAD,2023-10-21 10:50:38,14.9886857,0.0003,70.001,198.5397,265.0494,95.0323,0.003564,0.00043296,0.0,0 STARLINK-5232,1 55675U 23021AZ  23294.45183919  .00043296  00000-0  35640-2 0  9990,2 55675  70.0010 198.5397 0003000 265.0494  95.0323 14.98868570 38934,6948.528,96.072,572.477,568.308,0.0
55675.0,STARLINK-5232,PAYLOAD,2023-10-21 22:03:19,14.98887446,0.0002558,70.0011,197.3614,272.7373,87.3494,0.0038901,0.00047316,0.0,0 STARLINK-5232,1 55675U 23021AZ  23294.91897663  .00047316  00000-0  38901-2 0  9999,2 55675  70.0011 197.3614 0002558 272.7373  87.3494 14.98887446 39007,6948.47,96.071,572.112,568.557,0.0
55675.0,STARLINK-5232,PAYLOAD,2023-10-22 04:27:41,14.9891273,0.0002601,70.0015,196.6872,260.6719,99.4146,0.0037612,0.00045765,0.0,0 STARLINK-5232,1 55675U 23021AZ  23295.18589683  .00045765  00000-0  37612-2 0  9993,2 55675  70.0015 196.6872 0002601 260.6719  99.4146 14.98912730 38741,6948.391,96.07,572.064,568.449,0.0
55675.0,STARLINK-5232,PAYLOAD,2023-10-22 10:52:03,14.9896006,0.0002877,70.0016,196.013,244.1441,115.9422,0.0027001,0.00032807,0.0,0 STARLINK-5232,1 55675U 23021AZ  23295.45281934  .00032807  00000-0  27001-2 0  9995,2 55675  70.0016 196.0130 0002877 244.1441 115.9422 14.98960060 38781,6948.245,96.067,572.109,568.111,0.0
55675.0,STARLINK-5232,PAYLOAD,2023-10-22 20:28:32,14.99122103,0.000277,70.0008,195.0022,270.5949,89.4893,-0.00018473,-2.343e-05,0.0,0 STARLINK-5232,1 55675U 23021AZ  23295.85315701 -.00002343  00000-0 -18473-3 0  9997,2 55675  70.0008 195.0022 0002770 270.5949  89.4893 14.99122103 38842,6947.744,96.056,571.534,567.685,0.0
55675.0,STARLINK-5232,PAYLOAD,2023-10-22 22:04:37,14.99121998,0.0002793,70.0006,194.8337,270.9742,89.1098,-0.00018593,-2.357e-05,0.0,0 STARLINK-5232,1 55675U 23021AZ  23295.91988173 -.00002357  00000-0 -18593-3 0  9991,2 55675  70.0006 194.8337 0002793 270.9742  89.1098 14.99121998 39156,6947.745,96.056,571.55,567.669,0.0
55675.0,STARLINK-5232,PAYLOAD,2023-10-23 06:00:00,14.99136014,0.0002985,70.0018,194.0006,278.8879,62.3996,0.00018474,2.158e-05,0.0,0 STARLINK-5232,1 55675U 23021AZ  23296.25001157  .00002158  00000-0  18474-3 0  9992,2 55675  70.0018 194.0006 0002985 278.8879  62.3996 14.99136014 38902,6947.701,96.055,571.64,567.493,0.0
55675.0,STARLINK-5232,PAYLOAD,2023-10-23 22:05:51,14.99137754,0.0002795,70.0004,192.3081,274.246,85.838,-1.7769e-05,-3.1e-06,0.0,0 STARLINK-5232,1 55675U 23021AZ  23296.92073267 -.00000310  00000-0 -17769-4 0  9994,2 55675  70.0004 192.3081 0002795 274.2460  85.8380 14.99137754 39300,6947.696,96.055,571.503,567.619,0.0
55675.0,STARLINK-5232,PAYLOAD,2023-10-24 02:54:05,14.99143608,0.0002723,70.0004,191.8025,272.4643,87.6204,9.5575e-06,2.3e-07,0.0,0 STARLINK-5232,1 55675U 23021AZ  23297.12090008  .00000023  00000-0  95575-5 0  9990,2 55675  70.0004 191.8025 0002723 272.4643  87.6204 14.99143608 39036,6947.678,96.055,571.435,567.651,0.0
55675.0,STARLINK-5232,PAYLOAD,2023-10-24 10:54:30,14.99146103,0.0002768,70.0005,190.9603,273.391,86.6933,4.5698e-06,-3.8e-07,0.0,0 STARLINK-5232,1 55675U 23021AZ  23297.45451790 -.00000038  00000-0  45698-5 0  9993,2 55675  70.0005 190.9603 0002768 273.3910  86.6933 14.99146103 39384,6947.67,96.055,571.458,567.612,0.0
55675.0,STARLINK-5232,PAYLOAD,2023-10-25 02:55:19,14.99143231,0.0002787,70.0004,189.2759,275.0186,85.0655,0.00025876,3.061e-05,0.0,0 STARLINK-5232,1 55675U 23021AZ  23298.12175322  .00003061  00000-0  25876-3 0  9994,2 55675  70.0004 189.2759 0002787 275.0186  85.0655 14.99143231 39182,6947.679,96.055,571.48,567.608,0.0
55675.0,STARLINK-5232,PAYLOAD,2023-10-26 02:56:34,14.99137635,0.0002549,70.0011,186.7495,277.2416,82.8453,8.1212e-05,8.96e-06,0.0,0 STARLINK-5232,1 55675U 23021AZ  23299.12262088  .00000896  00000-0  81212-4 0  9991,2 55675  70.0011 186.7495 0002549 277.2416  82.8453 14.99137635 39334,6947.696,96.055,571.332,567.79,0.0
55675.0,STARLINK-5232,PAYLOAD,2023-10-26 20:33:28,14.99146362,0.0002669,70.001,184.8973,271.3181,88.7673,-3.5656e-05,-5.28e-06,0.0,0 STARLINK-5232,1 55675U 23021AZ  23299.85657829 -.00000528  00000-0 -35656-4 0  9997,2 55675  70.0010 184.8973 0002669 271.3181  88.7673 14.99146362 39741,6947.67,96.055,571.389,567.68,0.0
55675.0,STARLINK-5232,PAYLOAD,2023-10-27 02:57:47,14.99152307,0.0002605,70.0007,184.2237,269.8719,90.2142,8.2902e-06,7e-08,0.0,0 STARLINK-5232,1 55675U 23021AZ  23300.12346747  .00000007  00000-0  82902-5 0  9991,2 55675  70.0007 184.2237 0002605 269.8719  90.2142 14.99152307 39489,6947.651,96.054,571.326,567.706,0.0
55675.0,STARLINK-5232,PAYLOAD,2023-10-27 09:22:07,14.99172149,0.0002332,70.0022,183.5481,273.0184,87.0709,-0.00054057,-6.679e-05,0.0,0 STARLINK-5232,1 55675U 23021AZ  23300.39036216 -.00006679  00000-0 -54057-3 0  9998,2 55675  70.0022 183.5481 0002332 273.0184  87.0709 14.99172149 39826,6947.59,96.053,571.075,567.835,0.0
55675.0,STARLINK-5232,PAYLOAD,2023-10-27 20:34:42,14.99138582,0.0002361,70.0018,182.3714,266.5248,93.5642,-1.2401e-05,-2.45e-06,0.0,0 STARLINK-5232,1 55675U 23021AZ  23300.85743951 -.00000245  00000-0 -12401-4 0  9991,2 55675  70.0018 182.3714 0002361 266.5248  93.5642 14.99138582 39592,6947.694,96.055,571.199,567.918,0.0
55675.0,STARLINK-5232,PAYLOAD,2023-10-27 22:10:47,14.99136443,0.0002676,70.0002,182.2025,264.7711,95.3143,-3.9131e-05,-5.7e-06,0.0,0 STARLINK-5232,1 55675U 23021AZ  23300.92416484 -.00000570  00000-0 -39131-4 0  9997,2 55675  70.0002 182.2025 0002676 264.7711  95.3143 14.99136443 39908,6947.7,96.055,571.424,567.706,0.0
55675.0,STARLINK-5232,PAYLOAD,2023-10-28 09:23:22,14.99135362,0.0002732,70.0004,181.0222,271.2089,88.8757,-4.9078e-05,-6.92e-06,0.0,0 STARLINK-5232,1 55675U 23021AZ  23301.39123452 -.00000692  00000-0 -49078-4 0  9995,2 55675  70.0004 181.0222 0002732 271.2089  88.8757 14.99135362 39974,6947.703,96.055,571.467,567.67,0.0
55675.0,STARLINK-5232,PAYLOAD,2023-10-28 20:35:57,14.99136005,0.0002601,70.0002,179.8439,266.1246,93.9616,-7.4459e-05,-1.001e-05,0.0,0 STARLINK-5232,1 55675U 23021AZ  23301.85830430 -.00001001  00000-0 -74459-4 0  9993,2 55675  70.0002 179.8439 0002601 266.1246  93.9616 14.99136005 39741,6947.702,96.055,571.374,567.759,0.0
55675.0,STARLINK-5232,PAYLOAD,2023-10-28 22:12:02,14.99138413,0.0002619,69.9999,179.6743,263.2453,96.8408,-3.8177e-05,-5.59e-06,0.0,0 STARLINK-5232,1 55675U 23021AZ  23301.92502527 -.00000559  00000-0 -38177-4 0  9998,2 55675  69.9999 179.6743 0002619 263.2453  96.8408 14.99138413 40058,6947.694,96.055,571.379,567.739,0.0
55675.0,STARLINK-5232,PAYLOAD,2023-10-29 09:24:36,14.99138463,0.0002665,70.0,178.4953,268.7437,91.3417,-5.2101e-05,-7.28e-06,0.0,0 STARLINK-5232,1 55675U 23021AZ  23302.39209401 -.00000728  00000-0 -52101-4 0  9996,2 55675  70.0000 178.4953 0002665 268.7437  91.3417 14.99138463 40120,6947.694,96.055,571.41,567.707,0.0
55675.0,STARLINK-5232,PAYLOAD,2023-10-29 20:37:11,14.99130229,0.0002889,69.9999,177.3164,267.1865,92.8964,0.00011795,1.343e-05,0.0,0 STARLINK-5232,1 55675U 23021AZ  23302.85916337  .00001343  00000-0  11795-3 0  9995,2 55675  69.9999 177.3164 0002889 267.1865  92.8964 14.99130229 39899,6947.719,96.056,571.592,567.577,0.0
55675.0,STARLINK-5232,PAYLOAD,2023-10-29 22:13:16,14.99137696,0.0002696,70.0,177.1477,263.1413,96.9439,7.4156e-05,8.1e-06,0.0,0 STARLINK-5232,1 55675U 23021AZ  23302.92588393  .00000810  00000-0  74156-4 0  9999,2 55675  70.0000 177.1477 0002696 263.1413  96.9439 14.99137696 40205,6947.696,96.055,571.434,567.688,0.0
55675.0,STARLINK-5232,PAYLOAD,2023-10-30 01:25:26,14.99139547,0.0002743,69.9997,176.8107,263.9075,96.1772,9.5454e-05,1.07e-05,0.0,0 STARLINK-5232,1 55675U 23021AZ  23303.05933036  .00001070  00000-0  95454-4 0  9995,2 55675  69.9997 176.8107 0002743 263.9075  96.1772 14.99139547 39924,6947.691,96.055,571.461,567.65,0.0
